SKYKRAFT-1C             
1 55061U 23001BE  26068.70960345  .00004538  00000+0  18809-3 0  9997
2 55061  97.3326 124.5476 0011974 132.0782 228.1477 15.24327539176324
STARLINK-31651          
1 59860U 24098C   26068.01851422  .00003644  00000+0  14194-3 0  9994
2 59860  42.9980 281.7759 0000876 256.3852 103.6902 15.27560792101741
