[{"OBJECT_NAME":"SKYKRAFT-1C","OBJECT_ID":"2023-001BE","EPOCH":"2026-03-09T17:01:49.738944","MEAN_MOTION":15.24327539,"ECCENTRICITY":0.00119736,"INCLINATION":97.3326,"RA_OF_ASC_NODE":124.5476,"ARG_OF_PERICENTER":132.0782,"MEAN_ANOMALY":228.1477,"EPHEMERIS_TYPE":0,"CLASSIFICATION_TYPE":"U","NORAD_CAT_ID":55061,"ELEMENT_SET_NO":999,"REV_AT_EPOCH":17632,"BSTAR":0.00018809338,"MEAN_MOTION_DOT":4.538e-5,"MEAN_MOTION_DDOT":0},{"OBJECT_NAME":"STARLINK-31651","OBJECT_ID":"2024-098C","EPOCH":"2026-03-09T00:26:39.628608","MEAN_MOTION":15.27560792,"ECCENTRICITY":8.768e-5,"INCLINATION":42.998,"RA_OF_ASC_NODE":281.7759,"ARG_OF_PERICENTER":256.3852,"MEAN_ANOMALY":103.6902,"EPHEMERIS_TYPE":0,"CLASSIFICATION_TYPE":"U","NORAD_CAT_ID":59860,"ELEMENT_SET_NO":999,"REV_AT_EPOCH":10174,"BSTAR":0.00014193908,"MEAN_MOTION_DOT":3.644e-5,"MEAN_MOTION_DDOT":0}]
